CTC1_L_00517016-05
1 81157U 23601PB  26070.40839120  .00000000  00000+0  00000-0 0  9995
2 81157  97.7000 180.0000 0000000   0.0000 270.0000 14.98995063    10
CTC1_L_00517016-06
1 81158U 23640XE  26070.40839120  .00000000  00000+0  00000-0 0  9999
2 81158  97.7000 180.0000 0000000   0.0000 315.0000 14.98995063    11
CTC1_L_00517016-07
1 81159U 23688VD  26070.40839120  .00000000  00000+0  00000-0 0  9992
2 81159  97.7000 180.0000 0000000   0.0000   0.0000 14.98995063    13
CTC1_L_00517016-08
1 81160U 22691SH  26070.40839120  .00000000  00000+0  00000-0 0  9997
2 81160  97.7000 180.0000 0000000   0.0000  45.0000 14.98995063    14
CTC1_L_00517017-01
1 81161U 26889XY  26070.40839120  .00000000  00000+0  00000-0 0  9991
2 81161  97.7000 192.0000 0000000   0.0000  96.0000 14.98995063    14
CTC1_L_00517017-02
1 81162U 23870KB  26070.40839120  .00000000  00000+0  00000-0 0  9999
2 81162  97.7000 192.0000 0000000   0.0000 141.0000 14.98995063    16
CTC1_L_00517017-03
1 81163U 23627HM  26070.40839120  .00000000  00000+0  00000-0 0  9990
2 81163  97.7000 192.0000 0000000   0.0000 186.0000 14.98995063    16
CTC1_L_00517017-04
1 81164U 22053II  26070.40839120  .00000000  00000+0  00000-0 0  9993
2 81164  97.7000 192.0000 0000000   0.0000 231.0000 14.98995063    18
CTC1_L_00517017-05
1 81165U 26787RX  26070.40839120  .00000000  00000+0  00000-0 0  9992
2 81165  97.7000 192.0000 0000000   0.0000 276.0000 14.98995063    18
CTC1_L_00517017-06
1 81166U 23746EE  26070.40839120  .00000000  00000+0  00000-0 0  9995
2 81166  97.7000 192.0000 0000000   0.0000 321.0000 14.98995063    10
CTC1_L_00517017-07
1 81167U 26698VM  26070.40839120  .00000000  00000+0  00000-0 0  9995
2 81167  97.7000 192.0000 0000000   0.0000   6.0000 14.98995063    11
CTC1_L_00517017-08
1 81168U 23257TM  26070.40839120  .00000000  00000+0  00000-0 0  9994
2 81168  97.7000 192.0000 0000000   0.0000  51.0000 14.98995063    12
CTC1_L_00517018-01
1 81169U 22153RB  26070.40839120  .00000000  00000+0  00000-0 0  9999
2 81169  97.7000 204.0000 0000000   0.0000 102.0000 14.98995063    14
CTC1_L_00517018-02
1 81170U 24260HU  26070.40839120  .00000000  00000+0  00000-0 0  9992
2 81170  97.7000 204.0000 0000000   0.0000 147.0000 14.98995063    15
CTC1_L_00517018-03
1 81171U 26417WJ  26070.40839120  .00000000  00000+0  00000-0 0  9999
2 81171  97.7000 204.0000 0000000   0.0000 192.0000 14.98995063    16
CTC1_L_00517018-04
1 81172U 23006NH  26070.40839120  .00000000  00000+0  00000-0 0  9991
2 81172  97.7000 204.0000 0000000   0.0000 237.0000 14.98995063    17
CTC1_L_00517018-05
1 81173U 25418UD  26070.40839120  .00000000  00000+0  00000-0 0  9991
2 81173  97.7000 204.0000 0000000   0.0000 282.0000 14.98995063    18
CTC1_L_00517018-06
1 81174U 25221QA  26070.40839120  .00000000  00000+0  00000-0 0  9994
2 81174  97.7000 204.0000 0000000   0.0000 327.0000 14.98995063    19
CTC1_L_00517018-07
1 81175U 25547NK  26070.40839120  .00000000  00000+0  00000-0 0  9996
2 81175  97.7000 204.0000 0000000   0.0000  12.0000 14.98995063    11
CTC1_L_00517018-08
1 81176U 23660PK  26070.40839120  .00000000  00000+0  00000-0 0  9991
2 81176  97.7000 204.0000 0000000   0.0000  57.0000 14.98995063    11
CTC1_L_00517019-01
1 81177U 24899KA  26070.40839120  .00000000  00000+0  00000-0 0  9997
2 81177  97.7000 216.0000 0000000   0.0000 108.0000 14.98995063    12
CTC1_L_00517019-02
1 81178U 23060M   26070.40839120  .00000000  00000+0  00000-0 0  9997
2 81178  97.7000 216.0000 0000000   0.0000 153.0000 14.98995063    13
CTC1_L_00517019-03
1 81179U 22311TB  26070.40839120  .00000000  00000+0  00000-0 0  9996
2 81179  97.7000 216.0000 0000000   0.0000 198.0000 14.98995063    13
CTC1_L_00517019-04
1 81180U 26850GW  26070.40839120  .00000000  00000+0  00000-0 0  9990
2 81180  97.7000 216.0000 0000000   0.0000 243.0000 14.98995063    16
CTC1_L_00517019-05
1 81181U 23069PJ  26070.40839120  .00000000  00000+0  00000-0 0  9990
2 81181  97.7000 216.0000 0000000   0.0000 288.0000 14.98995063    16
CTC1_L_00517019-06
1 81182U 23513WY  26070.40839120  .00000000  00000+0  00000-0 0  9995
2 81182  97.7000 216.0000 0000000   0.0000 333.0000 14.98995063    18
CTC1_L_00517019-07
1 81183U 26930XD  26070.40839120  .00000000  00000+0  00000-0 0  9992
2 81183  97.7000 216.0000 0000000   0.0000  18.0000 14.98995063    19
CTC1_L_00517019-08
1 81184U 22531XY  26070.40839120  .00000000  00000+0  00000-0 0  9996
2 81184  97.7000 216.0000 0000000   0.0000  63.0000 14.98995063    10
CTC1_L_00517020-01
1 81185U 23058FN  26070.40839120  .00000000  00000+0  00000-0 0  9992
2 81185  97.7000 228.0000 0000000   0.0000 114.0000 14.98995063    11
CTC1_L_00517020-02
1 81186U 22050OD  26070.40839120  .00000000  00000+0  00000-0 0  9994
2 81186  97.7000 228.0000 0000000   0.0000 159.0000 14.98995063    11
CTC1_L_00517020-03
1 81187U 25609HA  26070.40839120  .00000000  00000+0  00000-0 0  9998
2 81187  97.7000 228.0000 0000000   0.0000 204.0000 14.98995063    13
CTC1_L_00517020-04
1 81188U 24470RL  26070.40839120  .00000000  00000+0  00000-0 0  9994
2 81188  97.7000 228.0000 0000000   0.0000 249.0000 14.98995063    13
CTC1_L_00517020-05
1 81189U 25144ZQ  26070.40839120  .00000000  00000+0  00000-0 0  9994
2 81189  97.7000 228.0000 0000000   0.0000 294.0000 14.98995063    14
CTC1_L_00517020-06
1 81190U 23629MU  26070.40839120  .00000000  00000+0  00000-0 0  9992
2 81190  97.7000 228.0000 0000000   0.0000 339.0000 14.98995063    16
CTC1_L_00517020-07
1 81191U 25759HA  26070.40839120  .00000000  00000+0  00000-0 0  9999
2 81191  97.7000 228.0000 0000000   0.0000  24.0000 14.98995063    18
CTC1_L_00517020-08
1 81192U 23565WR  26070.40839120  .00000000  00000+0  00000-0 0  9993
2 81192  97.7000 228.0000 0000000   0.0000  69.0000 14.98995063    18
CTC1_L_00517021-01
1 81193U 23729RL  26070.40839120  .00000000  00000+0  00000-0 0  9996
2 81193  97.7000 240.0000 0000000   0.0000 120.0000 14.98995063    11
CTC1_L_00517021-02
1 81194U 24271UI  26070.40839120  .00000000  00000+0  00000-0 0  9990
2 81194  97.7000 240.0000 0000000   0.0000 165.0000 14.98995063    11
CTC1_L_00517021-03
1 81195U 26573YH  26070.40839120  .00000000  00000+0  00000-0 0  9998
2 81195  97.7000 240.0000 0000000   0.0000 210.0000 14.98995063    13
CTC1_L_00517021-04
1 81196U 22166YL  26070.40839120  .00000000  00000+0  00000-0 0  9993
2 81196  97.7000 240.0000 0000000   0.0000 255.0000 14.98995063    13
CTC1_L_00517021-05
1 81197U 22845AZ  26070.40839120  .00000000  00000+0  00000-0 0  9998
2 81197  97.7000 240.0000 0000000   0.0000 300.0000 14.98995063    15
CTC1_L_00517021-06
1 81198U 26835EU  26070.40839120  .00000000  00000+0  00000-0 0  9992
2 81198  97.7000 240.0000 0000000   0.0000 345.0000 14.98995063    15
CTC1_L_00517021-07
1 81199U 25951CC  26070.40839120  .00000000  00000+0  00000-0 0  9991
2 81199  97.7000 240.0000 0000000   0.0000  30.0000 14.98995063    17
CTC1_L_00517021-08
1 81200U 22246XF  26070.40839120  .00000000  00000+0  00000-0 0  9998
2 81200  97.7000 240.0000 0000000   0.0000  75.0000 14.98995063    19
CTC1_L_00517022-01
1 81201U 25686DY  26070.40839120  .00000000  00000+0  00000-0 0  9990
2 81201  97.7000 252.0000 0000000   0.0000 126.0000 14.98995063    10
CTC1_L_00517022-02
1 81202U 23332YU  26070.40839120  .00000000  00000+0  00000-0 0  9997
2 81202  97.7000 252.0000 0000000   0.0000 171.0000 14.98995063    11
CTC1_L_00517022-03
1 81203U 23718RV  26070.40839120  .00000000  00000+0  00000-0 0  9996
2 81203  97.7000 252.0000 0000000   0.0000 216.0000 14.98995063    12
CTC1_L_00517022-04
1 81204U 26312NZ  26070.40839120  .00000000  00000+0  00000-0 0  9990
2 81204  97.7000 252.0000 0000000   0.0000 261.0000 14.98995063    13
CTC1_L_00517022-05
1 81205U 24832QC  26070.40839120  .00000000  00000+0  00000-0 0  9996
2 81205  97.7000 252.0000 0000000   0.0000 306.0000 14.98995063    14
CTC1_L_00517022-06
1 81206U 25749KA  26070.40839120  .00000000  00000+0  00000-0 0  9995
2 81206  97.7000 252.0000 0000000   0.0000 351.0000 14.98995063    15
CTC1_L_00517022-07
1 81207U 24540SN  26070.40839120  .00000000  00000+0  00000-0 0  9994
2 81207  97.7000 252.0000 0000000   0.0000  36.0000 14.98995063    16
CTC1_L_00517022-08
1 81208U 23717FB  26070.40839120  .00000000  00000+0  00000-0 0  9990
2 81208  97.7000 252.0000 0000000   0.0000  81.0000 14.98995063    17
CTC1_L_00517023-01
1 81209U 26604RN  26070.40839120  .00000000  00000+0  00000-0 0  9999
2 81209  97.7000 264.0000 0000000   0.0000 132.0000 14.98995063    18
CTC1_L_00517023-02
1 81210U 25433RY  26070.40839120  .00000000  00000+0  00000-0 0  9990
2 81210  97.7000 264.0000 0000000   0.0000 177.0000 14.98995063    19
CTC1_L_00517023-03
1 81211U 26906UD  26070.40839120  .00000000  00000+0  00000-0 0  9997
2 81211  97.7000 264.0000 0000000   0.0000 222.0000 14.98995063    11
CTC1_L_00517023-04
1 81212U 26902EN  26070.40839120  .00000000  00000+0  00000-0 0  9994
2 81212  97.7000 264.0000 0000000   0.0000 267.0000 14.98995063    11
CTC1_L_00517023-05
1 81213U 25770MN  26070.40839120  .00000000  00000+0  00000-0 0  9997
2 81213  97.7000 264.0000 0000000   0.0000 312.0000 14.98995063    13
CTC1_L_00517023-06
1 81214U 22506XG  26070.40839120  .00000000  00000+0  00000-0 0  9992
2 81214  97.7000 264.0000 0000000   0.0000 357.0000 14.98995063    13
CTC1_L_00517023-07
1 81215U 23614QL  26070.40839120  .00000000  00000+0  00000-0 0  9994
2 81215  97.7000 264.0000 0000000   0.0000  42.0000 14.98995063    15
CTC1_L_00517023-08
1 81216U 22570LK  26070.40839120  .00000000  00000+0  00000-0 0  9995
2 81216  97.7000 264.0000 0000000   0.0000  87.0000 14.98995063    15
CTC1_L_00517024-01
1 81217U 24496JT  26070.40839120  .00000000  00000+0  00000-0 0  9995
2 81217  97.7000 276.0000 0000000   0.0000 138.0000 14.98995063    16
CTC1_L_00517024-02
1 81218U 26255VM  26070.40839120  .00000000  00000+0  00000-0 0  9991
2 81218  97.7000 276.0000 0000000   0.0000 183.0000 14.98995063    17
